STARLINK-3694           
1 51957U 22025B   25156.53878748  .00000469  00000+0  50347-4 0  9998
2 51957  53.0537 200.0450 0001128  81.3324 278.7793 15.06393179180181
STARLINK-3692           
1 51958U 22025C   25156.39098170 -.00000173  00000+0  72761-5 0  9994
2 51958  53.0538 186.4666 0000833  78.6988 281.4094 15.06395412180341
STARLINK-3704           
1 51959U 22025D   25156.34342825 -.00000246  00000+0  23642-5 0  9994
2 51959  53.0532 200.8961 0001058  88.1106 272.0004 15.06394232179044
STARLINK-3691           
1 51960U 22025E   25156.40241863  .00000799  00000+0  72526-4 0  9999
2 51960  53.0533 200.6354 0001022  89.1924 270.9182 15.06398179179050
STARLINK-3697           
1 51962U 22025G   25156.37022442 -.00000346  00000+0 -43485-5 0  9990
2 51962  53.0531 191.3586 0001164  86.7838 273.3284 15.06393634180296
STARLINK-3675           
1 51963U 22025H   25156.44626611 -.00000557  00000+0 -18497-4 0  9995
2 51963  53.0543 186.1583 0001072  84.8684 275.2427 15.06394424180350
STARLINK-3690           
1 51964U 22025J   25156.41547279  .00000052  00000+0  22407-4 0  9999
2 51964  53.0534 191.7445 0001121  87.0759 273.0358 15.06395584179189
STARLINK-3696           
1 51965U 22025K   25156.53141213 -.00000929  00000+0 -43487-4 0  9997
2 51965  53.0532 200.0517 0000828  75.0031 285.1050 15.06395634180164
STARLINK-3699           
1 51966U 22025L   25156.37153160  .00000890  00000+0  78643-4 0  9991
2 51966  53.0534 195.7546 0001148  88.5247 271.5874 15.06400040179128
STARLINK-3681           
1 51968U 22025N   25156.39702940 -.00001217  00000+0 -62856-4 0  9996
2 51968  53.0550 191.7423 0001108  85.9230 274.1885 15.06391505179189
STARLINK-3680           
1 51969U 22025P   25156.50395895 -.00000216  00000+0  43905-5 0  9999
2 51969  53.0536 191.5629 0001183  78.7075 281.4047 15.06396275179180
STARLINK-3677           
1 51970U 22025Q   25156.36785968 -.00000555  00000+0 -18361-4 0  9993
2 51970  53.0542 195.8484 0001176  85.0300 275.0823 15.06394654180215
STARLINK-3669           
1 51971U 22025R   25156.40070998  .00000183  00000+0  31119-4 0  9990
2 51971  53.0534 191.6759 0000295  33.9361 326.1647 15.06395526179181
STARLINK-3671           
1 51972U 22025S   25156.48949173  .00000005  00000+0  19250-4 0  9994
2 51972  53.0537 195.2813 0001274  88.9216 271.1919 15.06393963179143
STARLINK-3679           
1 51973U 22025T   25156.43052604  .00000943  00000+0  82166-4 0  9991
2 51973  53.0541 195.4899 0001239  92.4877 267.6254 15.06396133179132
STARLINK-3672           
1 51974U 22025U   25156.48581193  .00000698  00000+0  65736-4 0  9998
2 51974  53.0533 195.2977 0001220  92.3800 267.7329 15.06386171179139
STARLINK-3674           
1 51975U 22025V   25156.40340770 -.00000601  00000+0 -21460-4 0  9997
2 51975  53.0539 191.2641 0001066  89.1685 270.9426 15.06390381179191
STARLINK-3663           
1 51976U 22025W   25156.33624912  .00044378  00000+0  80460-3 0  9994
2 51976  53.2106 178.2204 0005559  25.9536 334.1751 15.49184768180663
STARLINK-3660           
1 51977U 22025X   25156.33718971  .00000088  00000+0  23622-4 0  9992
2 51977  53.2153 184.2104 0001137  88.2070 271.9052 15.08835330179466
STARLINK-3656           
1 51979U 22025Z   25156.40798732 -.00000233  00000+0  34524-5 0  9992
2 51979  53.2158 203.8856 0001055  89.3949 270.7164 15.08839131179207
STARLINK-3649           
1 51980U 22025AA  25156.45214950  .00000315  00000+0  37857-4 0  9995
2 51980  53.2159 203.6860 0001066  81.1953 278.9160 15.08840614179204
STARLINK-3635           
1 51981U 22025AB  25156.53310777 -.00006566  00000+0 -39460-3 0  9996
2 51981  53.2165 203.3243 0001115  67.1742 292.9368 15.08859601180315
STARLINK-3655           
1 51983U 22025AD  25156.39694861  .00000474  00000+0  47822-4 0  9993
2 51983  53.2157 203.9417 0000343  98.5284 261.5747 15.08840158179192
STARLINK-3664           
1 51984U 22025AE  25156.43471767  .00000781  00000+0  67133-4 0  9995
2 51984  53.2165 203.8515 0001230  98.5360 261.5772 15.08850523179208
STARLINK-3651           
1 51985U 22025AF  25156.39054709  .00000053  00000+0  21413-4 0  9997
2 51985  53.2162 203.9754 0001124  80.7164 279.3956 15.08841296180287
STARLINK-3645           
1 51986U 22025AG  25156.40429255  .00001272  00000+0  98014-4 0  9997
2 51986  53.2159 203.7480 0001284  87.4999 272.6140 15.08838128179206
STARLINK-3644           
1 51987U 22025AH  25156.43377011  .00001878  00000+0  13611-3 0  9994
2 51987  53.2158 203.7683 0001301  88.1830 271.9311 15.08826629179208
STARLINK-3640           
1 51988U 22025AJ  25156.41534654  .00000348  00000+0  39939-4 0  9994
2 51988  53.2161 203.8519 0001104  85.4894 274.6225 15.08833807180317
STARLINK-3642           
1 51989U 22025AK  25156.43007075  .00000230  00000+0  32527-4 0  9995
2 51989  53.2157 203.7850 0001060  93.2008 266.9105 15.08833266180304
STARLINK-3657           
1 51990U 22025AL  25156.46503356 -.00000235  00000+0  33264-5 0  9999
2 51990  53.2161 183.6271 0000980  81.3626 278.7477 15.08836550180580
STARLINK-3652           
1 51991U 22025AM  25156.42271534  .00000462  00000+0  47146-4 0  9990
2 51991  53.2159 203.8193 0001241  93.4655 266.6479 15.08826136179207
STARLINK-3643           
1 51992U 22025AN  25156.45399033 -.00000165  00000+0  76852-5 0  9997
2 51992  53.2157 183.6786 0001116  85.6428 274.4692 15.08835375180606
STARLINK-3648           
1 51993U 22025AP  25156.41166527  .00000125  00000+0  25918-4 0  9995
2 51993  53.2159 203.8688 0001055  91.5230 268.5883 15.08838555179207
STARLINK-3647           
1 51994U 22025AQ  25156.38406932  .00000388  00000+0  42494-4 0  9998
2 51994  53.2160 183.9918 0001084  84.1532 275.9584 15.08832638180588
STARLINK-3636           
1 51995U 22025AR  25156.46135382  .00000776  00000+0  66826-4 0  9992
2 51995  53.2157 183.6450 0000939  92.8800 267.2300 15.08849967179058
STARLINK-3538           
1 51996U 22025AS  25156.38039013  .00000496  00000+0  49271-4 0  9992
2 51996  53.2156 184.0084 0000977  83.8811 276.2292 15.08833544179054
STARLINK-3589           
1 51997U 22025AT  25156.45765935  .00000712  00000+0  62821-4 0  9997
2 51997  53.2155 183.6631 0001272  88.9472 271.1666 15.08827259180579
STARLINK-3618           
1 51998U 22025AU  25156.35094926  .00000055  00000+0  21518-4 0  9990
2 51998  53.2155 184.1406 0001112  83.0486 277.0632 15.08837282179056
STARLINK-3667           
1 51999U 22025AV  25156.44293915  .00002461  00000+0  17260-3 0  9991
2 51999  53.2164 183.7185 0001191  88.1556 271.9572 15.08849583180579
STARLINK-3653           
1 52000U 22025AW  25156.46870029 -.00000108  00000+0  11302-4 0  9993
2 52000  53.2160 183.5216 0001114  92.4926 267.6194 15.08838774179071
STARLINK-3659           
1 52001U 22025AX  25156.48070546  .00000031  00000+0  20011-4 0  9993
2 52001  53.2160 183.5675 0001260  89.7840 270.3297 15.08841297179076
STARLINK-3668           
1 52002U 22025AY  25156.34727108  .00001139  00000+0  89646-4 0  9991
2 52002  53.2158 184.1942 0000914  86.9697 273.1399 15.08841755179053
YAOGAN-34 02            
1 52084U 22027A   25156.78748855 -.00000054  00000+0  60040-4 0  9996
2 52084  63.3976  88.0916 0070417 356.3246   3.7254 13.45388474158276
STARLINK-3537           
1 52088U 22029A   25156.66667824  .00068175  00000+0  47894-3 0  9993
2 52088  53.2092 118.9831 0000830 125.8263 111.4984 15.73553731180709
STARLINK-3722           
1 52089U 22029B   25156.54323932  .00002277  00000+0  16121-3 0  9990
2 52089  53.2169 253.2794 0002147 118.7487 241.3721 15.08826185178813
STARLINK-3712           
1 52090U 22029C   25156.53218528  .00000770  00000+0  66485-4 0  9990
2 52090  53.2162 253.3280 0001086  82.8565 277.2551 15.08838741178818
STARLINK-3716           
1 52092U 22029E   25156.53586639  .00000383  00000+0  42155-4 0  9991
2 52092  53.2165 253.3104 0001212  83.7027 276.4103 15.08840540178816
STARLINK-3673           
1 52093U 22029F   25156.59203678 -.00000673  00000+0 -24192-4 0  9992
2 52093  53.2168 253.0718 0001205  86.1686 273.9444 15.08833176178826
STARLINK-3714           
1 52094U 22029G   25156.52851470 -.00001744  00000+0 -91552-4 0  9999
2 52094  53.2168 253.3447 0001284  93.5866 266.5273 15.08822371178810
STARLINK-3701           
1 52095U 22029H   25156.58372435  .00011253  00000+0  72338-3 0  9999
2 52095  53.2169 253.0978 0001231  78.5200 281.5930 15.08871671178820
STARLINK-3717           
1 52096U 22029J   25156.56255275  .00003869  00000+0  26096-3 0  9994
2 52096  53.2160 243.1937 0001289  93.2739 266.8400 15.08850915178940
STARLINK-3665           
1 52098U 22029L   25156.58739170  .00001763  00000+0  12879-3 0  9994
2 52098  53.2175 253.0816 0001347  90.9850 269.1297 15.08850836178826
STARLINK-3702           
1 52100U 22029N   25156.58003886 -.00000055  00000+0  14664-4 0  9995
2 52100  53.2175 253.1154 0001350  87.9895 272.1252 15.08840228178824
STARLINK-3703           
1 52101U 22029P   25156.59109133 -.00001097  00000+0 -50846-4 0  9999
2 52101  53.2168 253.2560 0001315  86.3433 273.7709 15.08834090178814
STARLINK-3709           
1 52102U 22029Q   25156.51566629  .00001222  00000+0  94819-4 0  9995
2 52102  53.2166 243.4023 0001332  89.8341 270.2803 15.08845937178946
STARLINK-3705           
1 52103U 22029R   25156.42270905 -.00000951  00000+0 -41638-4 0  9996
2 52103  53.2171 243.8226 0001500 110.6456 249.4697 15.08844901178926
STARLINK-3706           
1 52105U 22029T   25156.48255283  .00001469  00000+0  11033-3 0  9994
2 52105  53.2168 243.5527 0001268  94.4500 265.6637 15.08841860178931
STARLINK-3670           
1 52106U 22029U   25156.56900578 -.00005544  00000+0 -33049-3 0  9999
2 52106  53.2175 253.1622 0001491  91.9117 268.2046 15.08838901178819
STARLINK-3658           
1 52107U 22029V   25156.54414943 -.00001015  00000+0 -45662-4 0  9998
2 52107  53.2172 243.2767 0001280  89.8783 270.2356 15.08844222178942
